0 SL-14 R/B
1 17178U 86094B   13283.36798531  .00000020  00000-0  75716-4 0  2579
2 17178 082.6045 318.4191 0003650 137.3244 345.6505 12.42036097217716
0 SL-14 R/B
1 17178U 86094B   13285.54093699  .00000014  00000-0  27646-4 0  2587
2 17178 082.6042 317.0885 0003686 133.7218 340.4930 12.42036322217983
0 SL-14 R/B
1 17178U 86094B   13287.72069225  .00000023  00000-0  95116-4 0  2595
2 17178 082.6042 315.7545 0003683 128.7790 007.0836 12.42036411218258
0 SL-14 R/B
1 17178U 86094B   13290.11294873 -.00000002  00000-0 -89818-4 0  2604
2 17178 082.6040 314.2893 0003749 124.8506 262.3594 12.42036683218552
0 SL-14 R/B
1 17178U 86094B   13292.12777794  .00000008  00000-0 -17437-4 0  2619
2 17178 082.6036 313.0546 0003763 122.8014 268.9806 12.42036417218808
0 SL-14 R/B
1 17178U 86094B   13294.14206243  .00000002  00000-0 -60369-4 0  2626
2 17178 082.6041 311.8213 0003782 118.2022 275.7159 12.42036453219055
0 SL-14 R/B
1 17178U 86094B   13296.16268863  .00000023  00000-0  96183-4 0  2632
2 17178 082.6040 310.5839 0003805 115.0018 309.3950 12.42036272219300
